{
  "type": "FeatureCollection",
  "features": [
    {
      "type": "Feature",
      "properties": {
        "norad_id": 30066,
        "name": "FENGYUN 1C DEB",
        "group": "fengyun-1c-debris",
        "lat": -33.61523984128177,
        "lon": 163.72166562750616,
        "alt_km": 751.7375553968959,
        "timestamp": "2025-12-25T09:48:52.563867+00:00",
        "meta_object_name": "FENGYUN 1C DEB",
        "meta_object_id": "1999-025PT",
        "meta_epoch": "2025-12-24T22:54:41.459328",
        "meta_mean_motion": 14.19117515,
        "meta_eccentricity": 0.01169128,
        "meta_inclination": 98.6352,
        "meta_ra_of_asc_node": 349.0769,
        "meta_arg_of_pericenter": 226.3728,
        "meta_mean_anomaly": 188.2291,
        "meta_ephemeris_type": 0,
        "meta_classification_type": "U",
        "meta_norad_cat_id": 30066,
        "meta_element_set_no": 999,
        "meta_rev_at_epoch": 98010,
        "meta_bstar": 0.00013733826,
        "meta_mean_motion_dot": 2.64e-06,
        "meta_mean_motion_ddot": 0,
        "tle_line1": "1 30066U 99025PT  25358.95464652  .00000264  00000+0  13734-3 0  9996",
        "tle_line2": "2 30066  98.6352 349.0769 0116912 226.3728 188.2291 14.19117515980102"
      },
      "geometry": {
        "type": "Point",
        "coordinates": [
          163.72166562750616,
          -33.61523984128177
        ]
      }
    },
    {
      "type": "Feature",
      "properties": {
        "norad_id": 30067,
        "name": "FENGYUN 1C DEB",
        "group": "fengyun-1c-debris",
        "lat": 2.9602655402980536,
        "lon": 66.32965441006,
        "alt_km": 851.8968390651444,
        "timestamp": "2025-12-25T09:48:52.563877+00:00",
        "meta_object_name": "FENGYUN 1C DEB",
        "meta_object_id": "1999-025PU",
        "meta_epoch": "2025-12-24T16:38:33.146016",
        "meta_mean_motion": 14.43723806,
        "meta_eccentricity": 0.0151221,
        "meta_inclination": 98.7655,
        "meta_ra_of_asc_node": 245.1357,
        "meta_arg_of_pericenter": 342.4324,
        "meta_mean_anomaly": 78.3351,
        "meta_ephemeris_type": 0,
        "meta_classification_type": "U",
        "meta_norad_cat_id": 30067,
        "meta_element_set_no": 999,
        "meta_rev_at_epoch": 99371,
        "meta_bstar": 0.00042761353,
        "meta_mean_motion_dot": 1.616e-05,
        "meta_mean_motion_ddot": 0,
        "tle_line1": "1 30067U 99025PU  25358.69343919  .00001616  00000+0  42761-3 0  9994",
        "tle_line2": "2 30067  98.7655 245.1357 0151221 342.4324  78.3351 14.43723806993713"
      },
      "geometry": {
        "type": "Point",
        "coordinates": [
          66.32965441006,
          2.9602655402980536
        ]
      }
    },
    {
      "type": "Feature",
      "properties": {
        "norad_id": 30068,
        "name": "FENGYUN 1C DEB",
        "group": "fengyun-1c-debris",
        "lat": 56.333913909767375,
        "lon": -26.447938765580087,
        "alt_km": 879.1304853211095,
        "timestamp": "2025-12-25T09:48:52.563887+00:00",
        "meta_object_name": "FENGYUN 1C DEB",
        "meta_object_id": "1999-025PV",
        "meta_epoch": "2025-12-24T16:32:26.473056",
        "meta_mean_motion": 14.12057692,
        "meta_eccentricity": 0.01894179,
        "meta_inclination": 98.7375,
        "meta_ra_of_asc_node": 346.1999,
        "meta_arg_of_pericenter": 314.8035,
        "meta_mean_anomaly": 43.7868,
        "meta_ephemeris_type": 0,
        "meta_classification_type": "U",
        "meta_norad_cat_id": 30068,
        "meta_element_set_no": 999,
        "meta_rev_at_epoch": 97512,
        "meta_bstar": 0.0001889102,
        "meta_mean_motion_dot": 3.65e-06,
        "meta_mean_motion_ddot": 0,
        "tle_line1": "1 30068U 99025PV  25358.68919529  .00000365  00000+0  18891-3 0  9997",
        "tle_line2": "2 30068  98.7375 346.1999 0189417 314.8035  43.7868 14.12057692975120"
      },
      "geometry": {
        "type": "Point",
        "coordinates": [
          -26.447938765580087,
          56.333913909767375
        ]
      }
    },
    {
      "type": "Feature",
      "properties": {
        "norad_id": 30069,
        "name": "FENGYUN 1C DEB",
        "group": "fengyun-1c-debris",
        "lat": -6.8753354109447065,
        "lon": 159.81316427197737,
        "alt_km": 914.6380726307398,
        "timestamp": "2025-12-25T09:48:52.563897+00:00",
        "meta_object_name": "FENGYUN 1C DEB",
        "meta_object_id": "1999-025PW",
        "meta_epoch": "2025-12-24T22:58:25.044384",
        "meta_mean_motion": 14.05235981,
        "meta_eccentricity": 0.00494464,
        "meta_inclination": 98.8025,
        "meta_ra_of_asc_node": 340.4453,
        "meta_arg_of_pericenter": 19.3745,
        "meta_mean_anomaly": 43.5013,
        "meta_ephemeris_type": 0,
        "meta_classification_type": "U",
        "meta_norad_cat_id": 30069,
        "meta_element_set_no": 999,
        "meta_rev_at_epoch": 97018,
        "meta_bstar": 0.00034538147,
        "meta_mean_motion_dot": 5.22e-06,
        "meta_mean_motion_ddot": 0,
        "tle_line1": "1 30069U 99025PW  25358.95723431  .00000522  00000+0  34538-3 0  9994",
        "tle_line2": "2 30069  98.8025 340.4453 0049446  19.3745  43.5013 14.05235981970180"
      },
      "geometry": {
        "type": "Point",
        "coordinates": [
          159.81316427197737,
          -6.8753354109447065
        ]
      }
    },
    {
      "type": "Feature",
      "properties": {
        "norad_id": 30070,
        "name": "FENGYUN 1C DEB",
        "group": "fengyun-1c-debris",
        "lat": -7.65955930330684,
        "lon": -123.05267127340488,
        "alt_km": 875.3609799407368,
        "timestamp": "2025-12-25T09:48:52.563907+00:00",
        "meta_object_name": "FENGYUN 1C DEB",
        "meta_object_id": "1999-025PX",
        "meta_epoch": "2025-12-24T16:27:49.639680",
        "meta_mean_motion": 14.10006786,
        "meta_eccentricity": 0.0327949,
        "meta_inclination": 98.2846,
        "meta_ra_of_asc_node": 57.4028,
        "meta_arg_of_pericenter": 284.5151,
        "meta_mean_anomaly": 199.2141,
        "meta_ephemeris_type": 0,
        "meta_classification_type": "U",
        "meta_norad_cat_id": 30070,
        "meta_element_set_no": 999,
        "meta_rev_at_epoch": 96047,
        "meta_bstar": 0.0016421151,
        "meta_mean_motion_dot": 4.74e-05,
        "meta_mean_motion_ddot": 0,
        "tle_line1": "1 30070U 99025PX  25358.68599120  .00004740  00000+0  16421-2 0  9998",
        "tle_line2": "2 30070  98.2846  57.4028 0327949 284.5151 199.2141 14.10006786960471"
      },
      "geometry": {
        "type": "Point",
        "coordinates": [
          -123.05267127340488,
          -7.65955930330684
        ]
      }
    },
    {
      "type": "Feature",
      "properties": {
        "norad_id": 30071,
        "name": "FENGYUN 1C DEB",
        "group": "fengyun-1c-debris",
        "lat": 0.16888322195107242,
        "lon": -80.90823618287637,
        "alt_km": 729.3390402501018,
        "timestamp": "2025-12-25T09:48:52.563917+00:00",
        "meta_object_name": "FENGYUN 1C DEB",
        "meta_object_id": "1999-025PY",
        "meta_epoch": "2025-12-24T05:09:57.670848",
        "meta_mean_motion": 14.52342438,
        "meta_eccentricity": 0.00381895,
        "meta_inclination": 98.6588,
        "meta_ra_of_asc_node": 97.8352,
        "meta_arg_of_pericenter": 74.9177,
        "meta_mean_anomaly": 346.822,
        "meta_ephemeris_type": 0,
        "meta_classification_type": "U",
        "meta_norad_cat_id": 30071,
        "meta_element_set_no": 999,
        "meta_rev_at_epoch": 98393,
        "meta_bstar": 0.0024427121,
        "meta_mean_motion_dot": 9.999e-05,
        "meta_mean_motion_ddot": 0,
        "tle_line1": "1 30071U 99025PY  25358.21525082  .00009999  00000+0  24427-2 0  9990",
        "tle_line2": "2 30071  98.6588  97.8352 0038189  74.9177 346.8220 14.52342438983938"
      },
      "geometry": {
        "type": "Point",
        "coordinates": [
          -80.90823618287637,
          0.16888322195107242
        ]
      }
    },
    {
      "type": "Feature",
      "properties": {
        "norad_id": 30072,
        "name": "FENGYUN 1C DEB",
        "group": "fengyun-1c-debris",
        "lat": -27.705883675834258,
        "lon": -36.43007435414089,
        "alt_km": 732.8075110616883,
        "timestamp": "2025-12-25T09:48:52.563927+00:00",
        "meta_object_name": "FENGYUN 1C DEB",
        "meta_object_id": "1999-025PZ",
        "meta_epoch": "2025-12-24T21:09:24.339744",
        "meta_mean_motion": 14.38003105,
        "meta_eccentricity": 0.00601805,
        "meta_inclination": 99.0769,
        "meta_ra_of_asc_node": 147.8288,
        "meta_arg_of_pericenter": 237.5813,
        "meta_mean_anomaly": 121.9543,
        "meta_ephemeris_type": 0,
        "meta_classification_type": "U",
        "meta_norad_cat_id": 30072,
        "meta_element_set_no": 999,
        "meta_rev_at_epoch": 97345,
        "meta_bstar": 0.0037204326,
        "meta_mean_motion_dot": 0.00011462,
        "meta_mean_motion_ddot": 0,
        "tle_line1": "1 30072U 99025PZ  25358.88153171  .00011462  00000+0  37204-2 0  9995",
        "tle_line2": "2 30072  99.0769 147.8288 0060180 237.5813 121.9543 14.38003105973454"
      },
      "geometry": {
        "type": "Point",
        "coordinates": [
          -36.43007435414089,
          -27.705883675834258
        ]
      }
    }
  ]
}